STARLINK-3584           
1 51885U 22022AK  26068.10011265  .00004308  00000+0  28848-3 0  9990
2 51885  53.2182   1.7687 0001073  82.5729 277.5385 15.08849631223158
LEMUR-2-STELLA          
1 60533U 24149BT  26068.72657350  .00013685  00000+0  85776-3 0  9992
2 60533  97.6764 150.9122 0001299  95.1117 265.0260 15.09464064 85488
