[{"OBJECT_NAME":"STARLINK-3584","OBJECT_ID":"2022-022AK","EPOCH":"2026-03-09T02:24:09.732960","MEAN_MOTION":15.08849631,"ECCENTRICITY":0.00010739,"INCLINATION":53.2182,"RA_OF_ASC_NODE":1.7687,"ARG_OF_PERICENTER":82.5729,"MEAN_ANOMALY":277.5385,"EPHEMERIS_TYPE":0,"CLASSIFICATION_TYPE":"U","NORAD_CAT_ID":51885,"ELEMENT_SET_NO":999,"REV_AT_EPOCH":22315,"BSTAR":0.00028848419,"MEAN_MOTION_DOT":4.308e-5,"MEAN_MOTION_DDOT":0},{"OBJECT_NAME":"LEMUR-2-STELLA","OBJECT_ID":"2024-149BT","EPOCH":"2026-03-09T17:26:15.951264","MEAN_MOTION":15.09464064,"ECCENTRICITY":0.0001299,"INCLINATION":97.6764,"RA_OF_ASC_NODE":150.9122,"ARG_OF_PERICENTER":95.1117,"MEAN_ANOMALY":265.026,"EPHEMERIS_TYPE":0,"CLASSIFICATION_TYPE":"U","NORAD_CAT_ID":60533,"ELEMENT_SET_NO":999,"REV_AT_EPOCH":8548,"BSTAR":0.00085776432,"MEAN_MOTION_DOT":0.00013685,"MEAN_MOTION_DDOT":0}]
